[{"OBJECT_NAME":"STARLINK-30263","OBJECT_ID":"2023-122L","EPOCH":"2026-03-09T10:41:15.655776","MEAN_MOTION":15.267389,"ECCENTRICITY":0.00012868,"INCLINATION":43.0011,"RA_OF_ASC_NODE":93.5321,"ARG_OF_PERICENTER":265.2703,"MEAN_ANOMALY":94.8002,"EPHEMERIS_TYPE":0,"CLASSIFICATION_TYPE":"U","NORAD_CAT_ID":57642,"ELEMENT_SET_NO":999,"REV_AT_EPOCH":14217,"BSTAR":2.930359e-5,"MEAN_MOTION_DOT":5.26e-6,"MEAN_MOTION_DDOT":0},{"OBJECT_NAME":"STRIX-4","OBJECT_ID":"2024-137A","EPOCH":"2026-03-09T15:41:49.501824","MEAN_MOTION":15.29026224,"ECCENTRICITY":0.00168396,"INCLINATION":43.0134,"RA_OF_ASC_NODE":129.8162,"ARG_OF_PERICENTER":5.2738,"MEAN_ANOMALY":354.8289,"EPHEMERIS_TYPE":0,"CLASSIFICATION_TYPE":"U","NORAD_CAT_ID":60352,"ELEMENT_SET_NO":999,"REV_AT_EPOCH":8876,"BSTAR":0.00071819834,"MEAN_MOTION_DOT":0.0002053,"MEAN_MOTION_DDOT":0}]
